{"type": "FeatureCollection", "features": [{"type": "Feature", "properties": {"norad_id": 26766, "name": "INTELSAT 10 (IS-10)", "group": "intelsat", "lat": -3.8405085493683084, "lon": -92.81240548528591, "alt_km": 36094.01873936698, "timestamp": "2025-12-16T03:53:26.726171+00:00", "meta": {"OBJECT_NAME": "INTELSAT 10 (IS-10)", "OBJECT_ID": "2001-019A", "EPOCH": "2025-12-15T01:39:51.718176", "MEAN_MOTION": 0.99077834, "ECCENTRICITY": 0.00077065, "INCLINATION": 8.6352, "RA_OF_ASC_NODE": 61.1341, "ARG_OF_PERICENTER": 226.8022, "MEAN_ANOMALY": 309.7673, "EPHEMERIS_TYPE": 0, "CLASSIFICATION_TYPE": "U", "NORAD_CAT_ID": 26766, "ELEMENT_SET_NO": 999, "REV_AT_EPOCH": 4375, "BSTAR": 0, "MEAN_MOTION_DOT": -2.45e-06, "MEAN_MOTION_DDOT": 0}, "tle": {"line1": "1 26766U 01019A   25349.06934859 -.00000245  00000+0  00000+0 0  9995", "line2": "2 26766   8.6352  61.1341 0007706 226.8022 309.7673  0.99077834 43752"}}, "geometry": {"type": "Point", "coordinates": [-92.81240548528591, -3.8405085493683084]}}, {"type": "Feature", "properties": {"norad_id": 26900, "name": "INTELSAT 902 (IS-902)", "group": "intelsat", "lat": 1.8859293554300272, "lon": 93.20629590280593, "alt_km": 35804.357213899406, "timestamp": "2025-12-16T03:53:26.726195+00:00", "meta": {"OBJECT_NAME": "INTELSAT 902 (IS-902)", "OBJECT_ID": "2001-039A", "EPOCH": "2025-12-11T04:42:42.842016", "MEAN_MOTION": 1.00272526, "ECCENTRICITY": 0.00044264, "INCLINATION": 5.6424, "RA_OF_ASC_NODE": 74.0881, "ARG_OF_PERICENTER": 184.9809, "MEAN_ANOMALY": 201.6699, "EPHEMERIS_TYPE": 0, "CLASSIFICATION_TYPE": "U", "NORAD_CAT_ID": 26900, "ELEMENT_SET_NO": 999, "REV_AT_EPOCH": 8881, "BSTAR": 0, "MEAN_MOTION_DOT": -2.78e-06, "MEAN_MOTION_DDOT": 0}, "tle": {"line1": "1 26900U 01039A   25345.19632919 -.00000278  00000+0  00000+0 0  9995", "line2": "2 26900   5.6424  74.0881 0004426 184.9809 201.6699  1.00272526 88816"}}, "geometry": {"type": "Point", "coordinates": [93.20629590280593, 1.8859293554300272]}}, {"type": "Feature", "properties": {"norad_id": 27380, "name": "INTELSAT 904 (IS-904)", "group": "intelsat", "lat": 4.21443391803654, "lon": 111.73868323755048, "alt_km": 35791.825349701365, "timestamp": "2025-12-16T03:53:26.726212+00:00", "meta": {"OBJECT_NAME": "INTELSAT 904 (IS-904)", "OBJECT_ID": "2002-007A", "EPOCH": "2025-12-15T02:57:53.111232", "MEAN_MOTION": 1.00272359, "ECCENTRICITY": 0.00015781, "INCLINATION": 6.4605, "RA_OF_ASC_NODE": 71.4054, "ARG_OF_PERICENTER": 237.6168, "MEAN_ANOMALY": 147.9815, "EPHEMERIS_TYPE": 0, "CLASSIFICATION_TYPE": "U", "NORAD_CAT_ID": 27380, "ELEMENT_SET_NO": 999, "REV_AT_EPOCH": 4992, "BSTAR": 0, "MEAN_MOTION_DOT": -2.09e-06, "MEAN_MOTION_DDOT": 0}, "tle": {"line1": "1 27380U 02007A   25349.12353138 -.00000209  00000+0  00000+0 0  9998", "line2": "2 27380   6.4605  71.4054 0001578 237.6168 147.9815  1.00272359 49926"}}, "geometry": {"type": "Point", "coordinates": [111.73868323755048, 4.21443391803654]}}, {"type": "Feature", "properties": {"norad_id": 27426, "name": "DIRECTV 5 (TEMPO 1)", "group": "intelsat", "lat": -3.060692009480549, "lon": 33.41255413378908, "alt_km": 35792.31461456448, "timestamp": "2025-12-16T03:53:26.726227+00:00", "meta": {"OBJECT_NAME": "DIRECTV 5 (TEMPO 1)", "OBJECT_ID": "2002-023A", "EPOCH": "2025-12-15T07:53:38.605056", "MEAN_MOTION": 1.00272487, "ECCENTRICITY": 0.00034019, "INCLINATION": 4.4087, "RA_OF_ASC_NODE": 77.6232, "ARG_OF_PERICENTER": 201.0478, "MEAN_ANOMALY": 173.8535, "EPHEMERIS_TYPE": 0, "CLASSIFICATION_TYPE": "U", "NORAD_CAT_ID": 27426, "ELEMENT_SET_NO": 999, "REV_AT_EPOCH": 8628, "BSTAR": 0, "MEAN_MOTION_DOT": -3.8e-07, "MEAN_MOTION_DDOT": 0}, "tle": {"line1": "1 27426U 02023A   25349.32891904 -.00000038  00000+0  00000+0 0  9997", "line2": "2 27426   4.4087  77.6232 0003401 201.0478 173.8535  1.00272487 86280"}}, "geometry": {"type": "Point", "coordinates": [33.41255413378908, -3.060692009480549]}}, {"type": "Feature", "properties": {"norad_id": 27438, "name": "INTELSAT 905 (IS-905)", "group": "intelsat", "lat": -5.730137916245604, "lon": 6.4074777534344145, "alt_km": 35786.3883743944, "timestamp": "2025-12-16T03:53:26.726240+00:00", "meta": {"OBJECT_NAME": "INTELSAT 905 (IS-905)", "OBJECT_ID": "2002-027A", "EPOCH": "2025-12-14T04:33:38.635200", "MEAN_MOTION": 1.00274201, "ECCENTRICITY": 0.00026501, "INCLINATION": 6.2894, "RA_OF_ASC_NODE": 72.0398, "ARG_OF_PERICENTER": 202.1249, "MEAN_ANOMALY": 100.1717, "EPHEMERIS_TYPE": 0, "CLASSIFICATION_TYPE": "U", "NORAD_CAT_ID": 27438, "ELEMENT_SET_NO": 999, "REV_AT_EPOCH": 4950, "BSTAR": 0, "MEAN_MOTION_DOT": 1.08e-06, "MEAN_MOTION_DDOT": 0}, "tle": {"line1": "1 27438U 02027A   25348.19003050  .00000108  00000+0  00000+0 0  9992", "line2": "2 27438   6.2894  72.0398 0002650 202.1249 100.1717  1.00274201 49509"}}, "geometry": {"type": "Point", "coordinates": [6.4074777534344145, -5.730137916245604]}}, {"type": "Feature", "properties": {"norad_id": 27445, "name": "GALAXY 3C (G-3C)", "group": "intelsat", "lat": -1.7084980976957989, "lon": 48.57679134966644, "alt_km": 35788.2008042237, "timestamp": "2025-12-16T03:53:26.726253+00:00", "meta": {"OBJECT_NAME": "GALAXY 3C (G-3C)", "OBJECT_ID": "2002-030A", "EPOCH": "2025-12-15T07:53:38.723424", "MEAN_MOTION": 1.00271928, "ECCENTRICITY": 0.00011015, "INCLINATION": 3.2704, "RA_OF_ASC_NODE": 80.4809, "ARG_OF_PERICENTER": 82.3867, "MEAN_ANOMALY": 304.9151, "EPHEMERIS_TYPE": 0, "CLASSIFICATION_TYPE": "U", "NORAD_CAT_ID": 27445, "ELEMENT_SET_NO": 999, "REV_AT_EPOCH": 4465, "BSTAR": 0, "MEAN_MOTION_DOT": -1.33e-06, "MEAN_MOTION_DDOT": 0}, "tle": {"line1": "1 27445U 02030A   25349.32892041 -.00000133  00000+0  00000+0 0  9995", "line2": "2 27445   3.2704  80.4809 0001101  82.3867 304.9151  1.00271928 44658"}}, "geometry": {"type": "Point", "coordinates": [48.57679134966644, -1.7084980976957989]}}, {"type": "Feature", "properties": {"norad_id": 27513, "name": "INTELSAT 906 (IS-906)", "group": "intelsat", "lat": 3.931275552589293, "lon": -152.39856656691256, "alt_km": 35773.20063172898, "timestamp": "2025-12-16T03:53:26.726266+00:00", "meta": {"OBJECT_NAME": "INTELSAT 906 (IS-906)", "OBJECT_ID": "2002-041A", "EPOCH": "2025-12-15T05:07:55.655904", "MEAN_MOTION": 1.00271942, "ECCENTRICITY": 0.00062435, "INCLINATION": 5.3354, "RA_OF_ASC_NODE": 75.2018, "ARG_OF_PERICENTER": 194.7243, "MEAN_ANOMALY": 315.3027, "EPHEMERIS_TYPE": 0, "CLASSIFICATION_TYPE": "U", "NORAD_CAT_ID": 27513, "ELEMENT_SET_NO": 999, "REV_AT_EPOCH": 8518, "BSTAR": 0, "MEAN_MOTION_DOT": 3.1e-07, "MEAN_MOTION_DDOT": 0}, "tle": {"line1": "1 27513U 02041A   25349.21383861  .00000031  00000+0  00000+0 0  9992", "line2": "2 27513   5.3354  75.2018 0006243 194.7243 315.3027  1.00271942 85187"}}, "geometry": {"type": "Point", "coordinates": [-152.39856656691256, 3.931275552589293]}}, {"type": "Feature", "properties": {"norad_id": 27954, "name": "GALAXY 13 (HORIZONS-1)", "group": "intelsat", "lat": -0.9370075269602328, "lon": -6.568269346517653, "alt_km": 35786.44838853554, "timestamp": "2025-12-16T03:53:26.726278+00:00", "meta": {"OBJECT_NAME": "GALAXY 13 (HORIZONS-1)", "OBJECT_ID": "2003-044A", "EPOCH": "2025-12-15T08:47:38.720832", "MEAN_MOTION": 1.00272716, "ECCENTRICITY": 0.00020724, "INCLINATION": 0.9427, "RA_OF_ASC_NODE": 86.4353, "ARG_OF_PERICENTER": 173.0532, "MEAN_ANOMALY": 166.6921, "EPHEMERIS_TYPE": 0, "CLASSIFICATION_TYPE": "U", "NORAD_CAT_ID": 27954, "ELEMENT_SET_NO": 999, "REV_AT_EPOCH": 4472, "BSTAR": 0, "MEAN_MOTION_DOT": 1.53e-06, "MEAN_MOTION_DDOT": 0}, "tle": {"line1": "1 27954U 03044A   25349.36642038  .00000153  00000+0  00000+0 0  9990", "line2": "2 27954   0.9427  86.4353 0002072 173.0532 166.6921  1.00272716 44726"}}, "geometry": {"type": "Point", "coordinates": [-6.568269346517653, -0.9370075269602328]}}, {"type": "Feature", "properties": {"norad_id": 28358, "name": "INTELSAT 10-02", "group": "intelsat", "lat": 0.022827132044708397, "lon": 142.43949752296393, "alt_km": 35790.29202426971, "timestamp": "2025-12-16T03:53:26.726290+00:00", "meta": {"OBJECT_NAME": "INTELSAT 10-02", "OBJECT_ID": "2004-022A", "EPOCH": "2025-12-15T03:06:37.274112", "MEAN_MOTION": 1.00271755, "ECCENTRICITY": 0.00010737, "INCLINATION": 0.0256, "RA_OF_ASC_NODE": 73.1218, "ARG_OF_PERICENTER": 229.4076, "MEAN_ANOMALY": 187.2017, "EPHEMERIS_TYPE": 0, "CLASSIFICATION_TYPE": "U", "NORAD_CAT_ID": 28358, "ELEMENT_SET_NO": 999, "REV_AT_EPOCH": 7871, "BSTAR": 0, "MEAN_MOTION_DOT": 1e-07, "MEAN_MOTION_DDOT": 0}, "tle": {"line1": "1 28358U 04022A   25349.12959808  .00000010  00000+0  00000+0 0  9998", "line2": "2 28358   0.0256  73.1218 0001073 229.4076 187.2017  1.00271755 78711"}}, "geometry": {"type": "Point", "coordinates": [142.43949752296393, 0.022827132044708397]}}, {"type": "Feature", "properties": {"norad_id": 28626, "name": "XM-3 (RHYTHM)", "group": "intelsat", "lat": 0.03807757627607718, "lon": -118.55260738752719, "alt_km": 36163.54645572321, "timestamp": "2025-12-16T03:53:26.726303+00:00", "meta": {"OBJECT_NAME": "XM-3 (RHYTHM)", "OBJECT_ID": "2005-008A", "EPOCH": "2025-12-15T07:01:29.779392", "MEAN_MOTION": 0.98951391, "ECCENTRICITY": 0.00016993, "INCLINATION": 0.1812, "RA_OF_ASC_NODE": 81.7516, "ARG_OF_PERICENTER": 275.0715, "MEAN_ANOMALY": 294.9424, "EPHEMERIS_TYPE": 0, "CLASSIFICATION_TYPE": "U", "NORAD_CAT_ID": 28626, "ELEMENT_SET_NO": 999, "REV_AT_EPOCH": 4077, "BSTAR": 0, "MEAN_MOTION_DOT": -6.2e-07, "MEAN_MOTION_DDOT": 0}, "tle": {"line1": "1 28626U 05008A   25349.29270578 -.00000062  00000+0  00000+0 0  9997", "line2": "2 28626   0.1812  81.7516 0001699 275.0715 294.9424  0.98951391 40775"}}, "geometry": {"type": "Point", "coordinates": [-118.55260738752719, 0.03807757627607718]}}]}